{
  "type": "FeatureCollection",
  "features": [
    {
      "type": "Feature",
      "properties": {
        "norad_id": 34554,
        "name": "COSMOS 2251 DEB",
        "group": "cosmos-2251-debris",
        "lat": -61.72335055363258,
        "lon": 157.27203260934778,
        "alt_km": 780.7726858917595,
        "timestamp": "2025-12-09T09:46:48.040218+00:00",
        "meta_object_name": "COSMOS 2251 DEB",
        "meta_object_id": "1993-036UQ",
        "meta_epoch": "2025-12-08T22:53:01.472064",
        "meta_mean_motion": 14.37924987,
        "meta_eccentricity": 0.0022824,
        "meta_inclination": 74.0385,
        "meta_ra_of_asc_node": 305.9631,
        "meta_arg_of_pericenter": 9.1788,
        "meta_mean_anomaly": 48.0884,
        "meta_ephemeris_type": 0,
        "meta_classification_type": "U",
        "meta_norad_cat_id": 34554,
        "meta_element_set_no": 999,
        "meta_rev_at_epoch": 87701,
        "meta_bstar": 0.00054953,
        "meta_mean_motion_dot": 1.639e-05,
        "meta_mean_motion_ddot": 0,
        "tle_line1": "1 34554U 93036UQ  25342.95348926  .00001639  00000+0  54953-3 0  9991",
        "tle_line2": "2 34554  74.0385 305.9631 0022824   9.1788  48.0884 14.37924987877017"
      },
      "geometry": {
        "type": "Point",
        "coordinates": [
          157.27203260934778,
          -61.72335055363258
        ]
      }
    },
    {
      "type": "Feature",
      "properties": {
        "norad_id": 34556,
        "name": "COSMOS 2251 DEB",
        "group": "cosmos-2251-debris",
        "lat": -65.89223155955486,
        "lon": 91.57175992352053,
        "alt_km": 644.5065208814194,
        "timestamp": "2025-12-09T09:46:48.040228+00:00",
        "meta_object_name": "COSMOS 2251 DEB",
        "meta_object_id": "1993-036US",
        "meta_epoch": "2025-12-08T11:36:33.981696",
        "meta_mean_motion": 14.7758469,
        "meta_eccentricity": 0.00084123,
        "meta_inclination": 74.0161,
        "meta_ra_of_asc_node": 133.2183,
        "meta_arg_of_pericenter": 192.5703,
        "meta_mean_anomaly": 223.8044,
        "meta_ephemeris_type": 0,
        "meta_classification_type": "U",
        "meta_norad_cat_id": 34556,
        "meta_element_set_no": 999,
        "meta_rev_at_epoch": 88266,
        "meta_bstar": 0.002974503,
        "meta_mean_motion_dot": 0.00021305,
        "meta_mean_motion_ddot": 0,
        "tle_line1": "1 34556U 93036US  25342.48372664  .00021305  00000+0  29745-2 0  9999",
        "tle_line2": "2 34556  74.0161 133.2183 0008412 192.5703 223.8044 14.77584690882661"
      },
      "geometry": {
        "type": "Point",
        "coordinates": [
          91.57175992352053,
          -65.89223155955486
        ]
      }
    },
    {
      "type": "Feature",
      "properties": {
        "norad_id": 34560,
        "name": "COSMOS 2251 DEB",
        "group": "cosmos-2251-debris",
        "lat": -64.2226580413749,
        "lon": 5.027666950237901,
        "alt_km": 651.6895978690309,
        "timestamp": "2025-12-09T09:46:48.040239+00:00",
        "meta_object_name": "COSMOS 2251 DEB",
        "meta_object_id": "1993-036UW",
        "meta_epoch": "2025-12-08T21:54:52.913952",
        "meta_mean_motion": 14.71969367,
        "meta_eccentricity": 0.0014937,
        "meta_inclination": 74.0166,
        "meta_ra_of_asc_node": 149.5836,
        "meta_arg_of_pericenter": 231.002,
        "meta_mean_anomaly": 279.6739,
        "meta_ephemeris_type": 0,
        "meta_classification_type": "U",
        "meta_norad_cat_id": 34560,
        "meta_element_set_no": 999,
        "meta_rev_at_epoch": 88195,
        "meta_bstar": 0.0027991,
        "meta_mean_motion_dot": 0.00017605,
        "meta_mean_motion_ddot": 0,
        "tle_line1": "1 34560U 93036UW  25342.91311243  .00017605  00000+0  27991-2 0  9997",
        "tle_line2": "2 34560  74.0166 149.5836 0014937 231.0020 279.6739 14.71969367881959"
      },
      "geometry": {
        "type": "Point",
        "coordinates": [
          5.027666950237901,
          -64.2226580413749
        ]
      }
    },
    {
      "type": "Feature",
      "properties": {
        "norad_id": 34563,
        "name": "COSMOS 2251 DEB",
        "group": "cosmos-2251-debris",
        "lat": -37.43515867822497,
        "lon": -162.72695712482846,
        "alt_km": 733.7255528657279,
        "timestamp": "2025-12-09T09:46:48.040249+00:00",
        "meta_object_name": "COSMOS 2251 DEB",
        "meta_object_id": "1993-036UZ",
        "meta_epoch": "2025-12-09T02:21:56.639808",
        "meta_mean_motion": 14.46491769,
        "meta_eccentricity": 0.0013854,
        "meta_inclination": 74.038,
        "meta_ra_of_asc_node": 210.5061,
        "meta_arg_of_pericenter": 304.5641,
        "meta_mean_anomaly": 208.2161,
        "meta_ephemeris_type": 0,
        "meta_classification_type": "U",
        "meta_norad_cat_id": 34563,
        "meta_element_set_no": 999,
        "meta_rev_at_epoch": 88144,
        "meta_bstar": 0.00058173,
        "meta_mean_motion_dot": 2.07e-05,
        "meta_mean_motion_ddot": 0,
        "tle_line1": "1 34563U 93036UZ  25343.09857222  .00002070  00000+0  58173-3 0  9999",
        "tle_line2": "2 34563  74.0380 210.5061 0013854 304.5641 208.2161 14.46491769881440"
      },
      "geometry": {
        "type": "Point",
        "coordinates": [
          -162.72695712482846,
          -37.43515867822497
        ]
      }
    },
    {
      "type": "Feature",
      "properties": {
        "norad_id": 34564,
        "name": "COSMOS 2251 DEB",
        "group": "cosmos-2251-debris",
        "lat": 10.091908087515918,
        "lon": 61.255494590102664,
        "alt_km": 770.9423453125128,
        "timestamp": "2025-12-09T09:46:48.040259+00:00",
        "meta_object_name": "COSMOS 2251 DEB",
        "meta_object_id": "1993-036VA",
        "meta_epoch": "2025-12-09T04:42:19.810368",
        "meta_mean_motion": 14.40679743,
        "meta_eccentricity": 0.0018892,
        "meta_inclination": 74.0327,
        "meta_ra_of_asc_node": 244.5675,
        "meta_arg_of_pericenter": 349.108,
        "meta_mean_anomaly": 164.1128,
        "meta_ephemeris_type": 0,
        "meta_classification_type": "U",
        "meta_norad_cat_id": 34564,
        "meta_element_set_no": 999,
        "meta_rev_at_epoch": 87955,
        "meta_bstar": 0.00038704,
        "meta_mean_motion_dot": 1.212e-05,
        "meta_mean_motion_ddot": 0,
        "tle_line1": "1 34564U 93036VA  25343.19606262  .00001212  00000+0  38704-3 0  9992",
        "tle_line2": "2 34564  74.0327 244.5675 0018892 349.1080 164.1128 14.40679743879555"
      },
      "geometry": {
        "type": "Point",
        "coordinates": [
          61.255494590102664,
          10.091908087515918
        ]
      }
    },
    {
      "type": "Feature",
      "properties": {
        "norad_id": 34567,
        "name": "COSMOS 2251 DEB",
        "group": "cosmos-2251-debris",
        "lat": 52.143205725654745,
        "lon": -175.61859543618192,
        "alt_km": 860.1680756097194,
        "timestamp": "2025-12-09T09:46:48.040270+00:00",
        "meta_object_name": "COSMOS 2251 DEB",
        "meta_object_id": "1993-036VD",
        "meta_epoch": "2025-12-08T22:16:40.851840",
        "meta_mean_motion": 14.24009841,
        "meta_eccentricity": 0.0074556,
        "meta_inclination": 74.0397,
        "meta_ra_of_asc_node": 163.64,
        "meta_arg_of_pericenter": 238.7304,
        "meta_mean_anomaly": 240.6349,
        "meta_ephemeris_type": 0,
        "meta_classification_type": "U",
        "meta_norad_cat_id": 34567,
        "meta_element_set_no": 999,
        "meta_rev_at_epoch": 87070,
        "meta_bstar": 0.00030796,
        "meta_mean_motion_dot": 7.02e-06,
        "meta_mean_motion_ddot": 0,
        "tle_line1": "1 34567U 93036VD  25342.92825060  .00000702  00000+0  30796-3 0  9990",
        "tle_line2": "2 34567  74.0397 163.6400 0074556 238.7304 240.6349 14.24009841870704"
      },
      "geometry": {
        "type": "Point",
        "coordinates": [
          -175.61859543618192,
          52.143205725654745
        ]
      }
    },
    {
      "type": "Feature",
      "properties": {
        "norad_id": 34569,
        "name": "COSMOS 2251 DEB",
        "group": "cosmos-2251-debris",
        "lat": -31.373188634352527,
        "lon": 34.24446134682529,
        "alt_km": 927.9770873985071,
        "timestamp": "2025-12-09T09:46:48.040281+00:00",
        "meta_object_name": "COSMOS 2251 DEB",
        "meta_object_id": "1993-036VF",
        "meta_epoch": "2025-12-09T02:47:16.367424",
        "meta_mean_motion": 14.24737504,
        "meta_eccentricity": 0.0157122,
        "meta_inclination": 73.9902,
        "meta_ra_of_asc_node": 204.6883,
        "meta_arg_of_pericenter": 33.8987,
        "meta_mean_anomaly": 125.076,
        "meta_ephemeris_type": 0,
        "meta_classification_type": "U",
        "meta_norad_cat_id": 34569,
        "meta_element_set_no": 999,
        "meta_rev_at_epoch": 86916,
        "meta_bstar": 0.00076608,
        "meta_mean_motion_dot": 2.003e-05,
        "meta_mean_motion_ddot": 0,
        "tle_line1": "1 34569U 93036VF  25343.11616166  .00002003  00000+0  76608-3 0  9997",
        "tle_line2": "2 34569  73.9902 204.6883 0157122  33.8987 125.0760 14.24737504869164"
      },
      "geometry": {
        "type": "Point",
        "coordinates": [
          34.24446134682529,
          -31.373188634352527
        ]
      }
    }
  ]
}